EUTELSAT 8 WEST B       
1 40875U 15039B   25288.91202493 -.00000079  00000+0  00000+0 0  9992
2 40875   0.0687   8.7649 0003817 198.0354 138.2237  1.00271633 37201
EUTELSAT 9B             
1 41310U 16005A   25288.91540494  .00000048  00000+0  00000+0 0  9992
2 41310   0.0528  54.5690 0003844 180.1068 128.5908  1.00273997 35669
EUTELSAT 65 WEST A      
1 41382U 16014A   25288.90067155 -.00000290  00000+0  00000+0 0  9998
2 41382   0.0887  51.4348 0002299 161.3906  70.9204  1.00271016 35082
EUTELSAT 117 WEST B     
1 41589U 16038B   25288.89044484 -.00000026  00000+0  00000+0 0  9998
2 41589   0.0103  74.4075 0000404  32.6459 121.1799  1.00271883 34217
EUTELSAT 172B           
1 42741U 17029B   25288.87631811 -.00000020  00000+0  00000+0 0  9998
2 42741   0.0152 186.1713 0000083 119.3930 206.5729  1.00269740 31286
EUTELSAT 7C             
1 44334U 19034B   25288.91497161  .00000035  00000+0  00000+0 0  9994
2 44334   0.0654 186.6395 0003352   0.2716 174.1840  1.00275013  4381
EUTELSAT 5 WEST B       
1 44624U 19067A   25288.91263160 -.00000056  00000+0  00000+0 0  9996
2 44624   0.0714  25.9117 0003269 185.4238 136.9075  1.00271806 21986
EUTELSAT KONNECT        
1 45027U 20005B   25288.93933709  .00000036  00000+0  00000+0 0  9990
2 45027   0.0672  91.9311 0001693 135.7088 142.4506  1.00273018 21872
